TEVEL2-2                
1 63219U 25052K   26068.64848259  .00020339  00000+0  69428-3 0  9991
2 63219  97.3987 324.7700 0004693 105.7930 254.3828 15.30343745 54855
STARLINK-34260          
1 64334U 25124T   26068.53166186  .00026388  00000+0  96485-3 0  9993
2 64334  43.0023 122.8303 0002053 261.3098  98.7521 15.27585172 41754
